{"type": "FeatureCollection", "features": [ {"type": "Feature", "properties": {"norad_id": 34529, "name": "IRIDIUM 33 DEB", "group": "iridium-33-debris", "lat": 0.30568049428668637, "lon": 33.93821010435288, "alt_km": 763.0391096207477, "timestamp": "2025-12-16T05:49:09.598672+00:00", "meta": {"OBJECT_NAME": "IRIDIUM 33 DEB", "OBJECT_ID": "1997-051HW", "EPOCH": "2025-12-15T13:08:52.059264", "MEAN_MOTION": 14.40617967, "ECCENTRICITY": 0.0005159, "INCLINATION": 86.364, "RA_OF_ASC_NODE": 34.2148, "ARG_OF_PERICENTER": 168.1879, "MEAN_ANOMALY": 191.9443, "EPHEMERIS_TYPE": 0, "CLASSIFICATION_TYPE": "U", "NORAD_CAT_ID": 34529, "ELEMENT_SET_NO": 999, "REV_AT_EPOCH": 88182, "BSTAR": 0.00011184947, "MEAN_MOTION_DOT": 3.76e-06, "MEAN_MOTION_DDOT": 0}, "tle": {"line1": "1 34529U 97051HW  25349.54782476  .00000376  00000+0  11185-3 0  9995", "line2": "2 34529  86.3640  34.2148 0005159 168.1879 191.9443 14.40617967881827"}}, "geometry": {"type": "Point", "coordinates": [33.93821010435288, 0.30568049428668637]}}, {"type": "Feature", "properties": {"norad_id": 34538, "name": "IRIDIUM 33 DEB", "group": "iridium-33-debris", "lat": -42.866391656606005, "lon": -172.5131039435828, "alt_km": 757.6841213638209, "timestamp": "2025-12-16T05:49:09.598687+00:00", "meta": {"OBJECT_NAME": "IRIDIUM 33 DEB", "OBJECT_ID": "1997-051JF", "EPOCH": "2025-12-15T02:29:33.974016", "MEAN_MOTION": 14.42663617, "ECCENTRICITY": 0.00326013, "INCLINATION": 86.2774, "RA_OF_ASC_NODE": 4.5209, "ARG_OF_PERICENTER": 319.9523, "MEAN_ANOMALY": 113.6008, "EPHEMERIS_TYPE": 0, "CLASSIFICATION_TYPE": "U", "NORAD_CAT_ID": 34538, "ELEMENT_SET_NO": 999, "REV_AT_EPOCH": 87790, "BSTAR": 0.00070844828, "MEAN_MOTION_DOT": 2.389e-05, "MEAN_MOTION_DDOT": 0}, "tle": {"line1": "1 34538U 97051JF  25349.10386544  .00002389  00000+0  70845-3 0  9997", "line2": "2 34538  86.2774   4.5209 0032601 319.9523 113.6008 14.42663617877903"}}, "geometry": {"type": "Point", "coordinates": [-172.5131039435828, -42.866391656606005]}}, {"type": "Feature", "properties": {"norad_id": 34540, "name": "IRIDIUM 33 DEB", "group": "iridium-33-debris", "lat": -26.887636144653477, "lon": -55.870073844081666, "alt_km": 661.5557060549972, "timestamp": "2025-12-16T05:49:09.598697+00:00", "meta": {"OBJECT_NAME": "IRIDIUM 33 DEB", "OBJECT_ID": "1997-051JH", "EPOCH": "2025-12-15T20:18:20.359008", "MEAN_MOTION": 14.75390185, "ECCENTRICITY": 0.00169148, "INCLINATION": 86.3098, "RA_OF_ASC_NODE": 306.1865, "ARG_OF_PERICENTER": 148.3055, "MEAN_ANOMALY": 240.7997, "EPHEMERIS_TYPE": 0, "CLASSIFICATION_TYPE": "U", "NORAD_CAT_ID": 34540, "ELEMENT_SET_NO": 999, "REV_AT_EPOCH": 89067, "BSTAR": 0.0010372753, "MEAN_MOTION_DOT": 7.08e-05, "MEAN_MOTION_DDOT": 0}, "tle": {"line1": "1 34540U 97051JH  25349.84606897  .00007080  00000+0  10373-2 0  9999", "line2": "2 34540  86.3098 306.1865 0016914 148.3055 240.7997 14.75390185890679"}}, "geometry": {"type": "Point", "coordinates": [-55.870073844081666, -26.887636144653477]}}, {"type": "Feature", "properties": {"norad_id": 34648, "name": "IRIDIUM 33 DEB", "group": "iridium-33-debris", "lat": 38.38673348890452, "lon": -76.60097675500671, "alt_km": 895.2977257137627, "timestamp": "2025-12-16T05:49:09.598708+00:00", "meta": {"OBJECT_NAME": "IRIDIUM 33 DEB", "OBJECT_ID": "1997-051JZ", "EPOCH": "2025-12-15T19:25:48.558720", "MEAN_MOTION": 14.11597133, "ECCENTRICITY": 0.01818536, "INCLINATION": 86.3893, "RA_OF_ASC_NODE": 280.7066, "ARG_OF_PERICENTER": 289.305, "MEAN_ANOMALY": 68.8545, "EPHEMERIS_TYPE": 0, "CLASSIFICATION_TYPE": "U", "NORAD_CAT_ID": 34648, "ELEMENT_SET_NO": 999, "REV_AT_EPOCH": 85004, "BSTAR": 0.0045448615, "MEAN_MOTION_DOT": 9.665e-05, "MEAN_MOTION_DDOT": 0}, "tle": {"line1": "1 34648U 97051JZ  25349.80958980  .00009665  00000+0  45449-2 0  9990", "line2": "2 34648  86.3893 280.7066 0181853 289.3050  68.8545 14.11597133850044"}}, "geometry": {"type": "Point", "coordinates": [-76.60097675500671, 38.38673348890452]}}, {"type": "Feature", "properties": {"norad_id": 34651, "name": "IRIDIUM 33 DEB", "group": "iridium-33-debris", "lat": -83.08580058057593, "lon": 106.66660182334635, "alt_km": 799.146052782563, "timestamp": "2025-12-16T05:49:09.598717+00:00", "meta": {"OBJECT_NAME": "IRIDIUM 33 DEB", "OBJECT_ID": "1997-051KC", "EPOCH": "2025-12-15T16:44:43.264608", "MEAN_MOTION": 14.2586969, "ECCENTRICITY": 0.01422111, "INCLINATION": 86.2826, "RA_OF_ASC_NODE": 139.319, "ARG_OF_PERICENTER": 194.5813, "MEAN_ANOMALY": 165.1258, "EPHEMERIS_TYPE": 0, "CLASSIFICATION_TYPE": "U", "NORAD_CAT_ID": 34651, "ELEMENT_SET_NO": 999, "REV_AT_EPOCH": 85938, "BSTAR": 0.0022485877, "MEAN_MOTION_DOT": 5.97e-05, "MEAN_MOTION_DDOT": 0}, "tle": {"line1": "1 34651U 97051KC  25349.69772297  .00005970  00000+0  22486-2 0  9997", "line2": "2 34651  86.2826 139.3190 0142211 194.5813 165.1258 14.25869690859382"}}, "geometry": {"type": "Point", "coordinates": [106.66660182334635, -83.08580058057593]}}, {"type": "Feature", "properties": {"norad_id": 34652, "name": "IRIDIUM 33 DEB", "group": "iridium-33-debris", "lat": 61.3977352406476, "lon": -14.80015208586221, "alt_km": 693.6228513446185, "timestamp": "2025-12-16T05:49:09.598728+00:00", "meta": {"OBJECT_NAME": "IRIDIUM 33 DEB", "OBJECT_ID": "1997-051KD", "EPOCH": "2025-12-15T23:06:17.407008", "MEAN_MOTION": 14.62091259, "ECCENTRICITY": 0.00256988, "INCLINATION": 86.3313, "RA_OF_ASC_NODE": 338.5668, "ARG_OF_PERICENTER": 286.4484, "MEAN_ANOMALY": 103.3861, "EPHEMERIS_TYPE": 0, "CLASSIFICATION_TYPE": "U", "NORAD_CAT_ID": 34652, "ELEMENT_SET_NO": 999, "REV_AT_EPOCH": 88531, "BSTAR": 0.00069351395, "MEAN_MOTION_DOT": 3.52e-05, "MEAN_MOTION_DDOT": 0}, "tle": {"line1": "1 34652U 97051KD  25349.96270147  .00003520  00000+0  69351-3 0  9997", "line2": "2 34652  86.3313 338.5668 0025698 286.4484 103.3861 14.62091259885317"}}, "geometry": {"type": "Point", "coordinates": [-14.80015208586221, 61.3977352406476]}}, {"type": "Feature", "properties": {"norad_id": 34690, "name": "IRIDIUM 33 DEB", "group": "iridium-33-debris", "lat": -16.579044231787652, "lon": -143.4501989027784, "alt_km": 721.3886360519036, "timestamp": "2025-12-16T05:49:09.598738+00:00", "meta": {"OBJECT_NAME": "IRIDIUM 33 DEB", "OBJECT_ID": "1997-051KM", "EPOCH": "2025-12-15T21:29:19.372704", "MEAN_MOTION": 14.55108045, "ECCENTRICITY": 0.00104656, "INCLINATION": 86.3784, "RA_OF_ASC_NODE": 35.6202, "ARG_OF_PERICENTER": 19.3617, "MEAN_ANOMALY": 160.0071, "EPHEMERIS_TYPE": 0, "CLASSIFICATION_TYPE": "U", "NORAD_CAT_ID": 34690, "ELEMENT_SET_NO": 999, "REV_AT_EPOCH": 88140, "BSTAR": 0.0003293716, "MEAN_MOTION_DOT": 1.443e-05, "MEAN_MOTION_DDOT": 0}, "tle": {"line1": "1 34690U 97051KM  25349.89536311  .00001443  00000+0  32937-3 0  9991", "line2": "2 34690  86.3784  35.6202 0010465  19.3617 160.0071 14.55108045881400"}}, "geometry": {"type": "Point", "coordinates": [-143.4501989027784, -16.579044231787652]}}, {"type": "Feature", "properties": {"norad_id": 34693, "name": "IRIDIUM 33 DEB", "group": "iridium-33-debris", "lat": 85.65826966432152, "lon": 0.45253515193409083, "alt_km": 465.33557126616415, "timestamp": "2025-12-16T05:49:09.598748+00:00", "meta": {"OBJECT_NAME": "IRIDIUM 33 DEB", "OBJECT_ID": "1997-051KQ", "EPOCH": "2025-12-15T21:49:54.444288", "MEAN_MOTION": 15.28720084, "ECCENTRICITY": 0.00128903, "INCLINATION": 86.3039, "RA_OF_ASC_NODE": 302.2489, "ARG_OF_PERICENTER": 47.6985, "MEAN_ANOMALY": 9.5457, "EPHEMERIS_TYPE": 0, "CLASSIFICATION_TYPE": "U", "NORAD_CAT_ID": 34693, "ELEMENT_SET_NO": 999, "REV_AT_EPOCH": 88963, "BSTAR": 0.0034812726, "MEAN_MOTION_DOT": 0.00098516, "MEAN_MOTION_DDOT": 0}, "tle": {"line1": "1 34693U 97051KQ  25349.90965792  .00098516  00000+0  34813-2 0  9996", "line2": "2 34693  86.3039 302.2489 0012890  47.6985   9.5457 15.28720084889634"}}, "geometry": {"type": "Point", "coordinates": [0.45253515193409083, 85.65826966432152]}}, {"type": "Feature", "properties": {"norad_id": 34696, "name": "IRIDIUM 33 DEB", "group": "iridium-33-debris", "lat": 77.80932305286333, "lon": -172.0959915637466, "alt_km": 638.1572102626988, "timestamp": "2025-12-16T05:49:09.598758+00:00", "meta": {"OBJECT_NAME": "IRIDIUM 33 DEB", "OBJECT_ID": "1997-051KT", "EPOCH": "2025-12-15T13:39:18.734112", "MEAN_MOTION": 14.65257205, "ECCENTRICITY": 0.00738903, "INCLINATION": 86.1854, "RA_OF_ASC_NODE": 26.2064, "ARG_OF_PERICENTER": 157.9484, "MEAN_ANOMALY": 353.8897, "EPHEMERIS_TYPE": 0, "CLASSIFICATION_TYPE": "U", "NORAD_CAT_ID": 34696, "ELEMENT_SET_NO": 999, "REV_AT_EPOCH": 86714, "BSTAR": 0.0025836599, "MEAN_MOTION_DOT": 0.00014532, "MEAN_MOTION_DDOT": 0}, "tle": {"line1": "1 34696U 97051KT  25349.56896683  .00014532  00000+0  25837-2 0  9995", "line2": "2 34696  86.1854  26.2064 0073890 157.9484 353.8897 14.65257205867143"}}, "geometry": {"type": "Point", "coordinates": [-172.0959915637466, 77.80932305286333]}}, {"type": "Feature", "properties": {"norad_id": 34765, "name": "IRIDIUM 33 DEB", "group": "iridium-33-debris", "lat": 40.70478627627404, "lon": 34.41618212155032, "alt_km": 764.2593094067561, "timestamp": "2025-12-16T05:49:09.598768+00:00", "meta": {"OBJECT_NAME": "IRIDIUM 33 DEB", "OBJECT_ID": "1997-051LJ", "EPOCH": "2025-12-15T13:40:10.093728", "MEAN_MOTION": 14.40472042, "ECCENTRICITY": 0.00157365, "INCLINATION": 86.3391, "RA_OF_ASC_NODE": 31.5475, "ARG_OF_PERICENTER": 201.7387, "MEAN_ANOMALY": 311.9184, "EPHEMERIS_TYPE": 0, "CLASSIFICATION_TYPE": "U", "NORAD_CAT_ID": 34765, "ELEMENT_SET_NO": 999, "REV_AT_EPOCH": 87654, "BSTAR": 0.00038671785, "MEAN_MOTION_DOT": 1.25e-05, "MEAN_MOTION_DDOT": 0}, "tle": {"line1": "1 34765U 97051LJ  25349.56956127  .00001250  00000+0  38672-3 0  9997", "line2": "2 34765  86.3391  31.5475 0015736 201.7387 311.9184 14.40472042876547"}}, "geometry": {"type": "Point", "coordinates": [34.41618212155032, 40.70478627627404]}}]}